[{"OBJECT_NAME":"STARLINK-5818","OBJECT_ID":"2023-028AW","EPOCH":"2025-08-18T14:44:52.347264","MEAN_MOTION":14.98328907,"ECCENTRICITY":0.0003147,"INCLINATION":70.0014,"RA_OF_ASC_NODE":356.6363,"ARG_OF_PERICENTER":271.0213,"MEAN_ANOMALY":89.0585,"EPHEMERIS_TYPE":0,"CLASSIFICATION_TYPE":"U","NORAD_CAT_ID":55785,"ELEMENT_SET_NO":999,"REV_AT_EPOCH":13660,"BSTAR":-9.7904e-6,"MEAN_MOTION_DOT":-2.1e-6,"MEAN_MOTION_DDOT":0},{"OBJECT_NAME":"STARLINK-5823","OBJECT_ID":"2023-028AX","EPOCH":"2025-08-18T14:26:50.607168","MEAN_MOTION":14.98324856,"ECCENTRICITY":0.0003198,"INCLINATION":70.001,"RA_OF_ASC_NODE":356.5923,"ARG_OF_PERICENTER":266.8831,"MEAN_ANOMALY":93.1962,"EPHEMERIS_TYPE":0,"CLASSIFICATION_TYPE":"U","NORAD_CAT_ID":55786,"ELEMENT_SET_NO":999,"REV_AT_EPOCH":13660,"BSTAR":9.9269e-5,"MEAN_MOTION_DOT":1.091e-5,"MEAN_MOTION_DDOT":0},{"OBJECT_NAME":"STARLINK-5811","OBJECT_ID":"2023-028AY","EPOCH":"2025-08-18T14:38:52.151712","MEAN_MOTION":14.98321885,"ECCENTRICITY":0.0003118,"INCLINATION":70.0017,"RA_OF_ASC_NODE":356.6223,"ARG_OF_PERICENTER":270.5547,"MEAN_ANOMALY":89.5254,"EPHEMERIS_TYPE":0,"CLASSIFICATION_TYPE":"U","NORAD_CAT_ID":55787,"ELEMENT_SET_NO":999,"REV_AT_EPOCH":13660,"BSTAR":-6.094e-5,"MEAN_MOTION_DOT":-8.2e-6,"MEAN_MOTION_DDOT":0},{"OBJECT_NAME":"STARLINK-5804","OBJECT_ID":"2023-028AZ","EPOCH":"2025-08-18T14:32:51.148320","MEAN_MOTION":14.98337111,"ECCENTRICITY":0.0003219,"INCLINATION":70.0011,"RA_OF_ASC_NODE":356.6075,"ARG_OF_PERICENTER":268.8819,"MEAN_ANOMALY":91.1972,"EPHEMERIS_TYPE":0,"CLASSIFICATION_TYPE":"U","NORAD_CAT_ID":55788,"ELEMENT_SET_NO":999,"REV_AT_EPOCH":13660,"BSTAR":0.00010916,"MEAN_MOTION_DOT":1.21e-5,"MEAN_MOTION_DDOT":0},{"OBJECT_NAME":"STARLINK-5815","OBJECT_ID":"2023-028BA","EPOCH":"2025-08-18T13:56:45.419136","MEAN_MOTION":14.98345698,"ECCENTRICITY":0.0002464,"INCLINATION":70.0012,"RA_OF_ASC_NODE":356.5153,"ARG_OF_PERICENTER":273.7509,"MEAN_ANOMALY":86.3368,"EPHEMERIS_TYPE":0,"CLASSIFICATION_TYPE":"U","NORAD_CAT_ID":55789,"ELEMENT_SET_NO":999,"REV_AT_EPOCH":13660,"BSTAR":0.00019068,"MEAN_MOTION_DOT":2.184e-5,"MEAN_MOTION_DDOT":0},{"OBJECT_NAME":"STARLINK-5813","OBJECT_ID":"2023-028BB","EPOCH":"2025-08-18T14:03:01.807776","MEAN_MOTION":14.98330709,"ECCENTRICITY":0.0003294,"INCLINATION":70.0012,"RA_OF_ASC_NODE":356.534,"ARG_OF_PERICENTER":270.1799,"MEAN_ANOMALY":89.8983,"EPHEMERIS_TYPE":0,"CLASSIFICATION_TYPE":"U","NORAD_CAT_ID":55790,"ELEMENT_SET_NO":999,"REV_AT_EPOCH":13660,"BSTAR":2.8605e-5,"MEAN_MOTION_DOT":2.48e-6,"MEAN_MOTION_DDOT":0},{"OBJECT_NAME":"STARLINK-5807","OBJECT_ID":"2023-028BC","EPOCH":"2025-08-18T14:20:49.572672","MEAN_MOTION":14.98329582,"ECCENTRICITY":0.0003085,"INCLINATION":70.0014,"RA_OF_ASC_NODE":356.578,"ARG_OF_PERICENTER":269.0547,"MEAN_ANOMALY":91.0259,"EPHEMERIS_TYPE":0,"CLASSIFICATION_TYPE":"U","NORAD_CAT_ID":55791,"ELEMENT_SET_NO":999,"REV_AT_EPOCH":13660,"BSTAR":-1.7557e-5,"MEAN_MOTION_DOT":-3.02e-6,"MEAN_MOTION_DDOT":0},{"OBJECT_NAME":"STARLINK-5856","OBJECT_ID":"2023-037A","EPOCH":"2025-08-18T14:34:31.446624","MEAN_MOTION":14.98331524,"ECCENTRICITY":0.0002498,"INCLINATION":69.9996,"RA_OF_ASC_NODE":96.6545,"ARG_OF_PERICENTER":267.884,"MEAN_ANOMALY":92.2033,"EPHEMERIS_TYPE":0,"CLASSIFICATION_TYPE":"U","NORAD_CAT_ID":55914,"ELEMENT_SET_NO":999,"REV_AT_EPOCH":13375,"BSTAR":4.8235e-6,"MEAN_MOTION_DOT":-3.5e-7,"MEAN_MOTION_DDOT":0},{"OBJECT_NAME":"STARLINK-5859","OBJECT_ID":"2023-037B","EPOCH":"2025-08-18T01:21:24.378624","MEAN_MOTION":14.98330304,"ECCENTRICITY":0.0002887,"INCLINATION":69.9991,"RA_OF_ASC_NODE":97.9409,"ARG_OF_PERICENTER":270.3798,"MEAN_ANOMALY":89.703,"EPHEMERIS_TYPE":0,"CLASSIFICATION_TYPE":"U","NORAD_CAT_ID":55915,"ELEMENT_SET_NO":999,"REV_AT_EPOCH":13367,"BSTAR":1.1566e-5,"MEAN_MOTION_DOT":4.5e-7,"MEAN_MOTION_DDOT":0},{"OBJECT_NAME":"STARLINK-5796","OBJECT_ID":"2023-037C","EPOCH":"2025-08-18T08:03:58.681440","MEAN_MOTION":14.9833519,"ECCENTRICITY":0.0002332,"INCLINATION":70.0003,"RA_OF_ASC_NODE":97.3124,"ARG_OF_PERICENTER":269.8264,"MEAN_ANOMALY":90.2627,"EPHEMERIS_TYPE":0,"CLASSIFICATION_TYPE":"U","NORAD_CAT_ID":55916,"ELEMENT_SET_NO":999,"REV_AT_EPOCH":13302,"BSTAR":-2.4497e-5,"MEAN_MOTION_DOT":-3.85e-6,"MEAN_MOTION_DDOT":0},{"OBJECT_NAME":"STARLINK-5855","OBJECT_ID":"2023-037D","EPOCH":"2025-08-18T14:00:01.999872","MEAN_MOTION":15.63599396,"ECCENTRICITY":0.0003731,"INCLINATION":69.976,"RA_OF_ASC_NODE":29.958,"ARG_OF_PERICENTER":119.1034,"MEAN_ANOMALY":306.2932,"EPHEMERIS_TYPE":0,"CLASSIFICATION_TYPE":"U","NORAD_CAT_ID":55917,"ELEMENT_SET_NO":999,"REV_AT_EPOCH":594,"BSTAR":0.00085578,"MEAN_MOTION_DOT":0.00080363,"MEAN_MOTION_DDOT":0},{"OBJECT_NAME":"STARLINK-5867","OBJECT_ID":"2023-037E","EPOCH":"2025-08-18T07:57:57.307392","MEAN_MOTION":14.98337648,"ECCENTRICITY":0.0003112,"INCLINATION":69.9992,"RA_OF_ASC_NODE":97.2971,"ARG_OF_PERICENTER":268.4803,"MEAN_ANOMALY":91.5999,"EPHEMERIS_TYPE":0,"CLASSIFICATION_TYPE":"U","NORAD_CAT_ID":55918,"ELEMENT_SET_NO":999,"REV_AT_EPOCH":13302,"BSTAR":8.2625e-5,"MEAN_MOTION_DOT":8.93e-6,"MEAN_MOTION_DDOT":0},{"OBJECT_NAME":"STARLINK-5871","OBJECT_ID":"2023-037F","EPOCH":"2025-08-18T14:10:38.824032","MEAN_MOTION":14.98292406,"ECCENTRICITY":0.0009931,"INCLINATION":69.9998,"RA_OF_ASC_NODE":96.5942,"ARG_OF_PERICENTER":289.4832,"MEAN_ANOMALY":70.5253,"EPHEMERIS_TYPE":0,"CLASSIFICATION_TYPE":"U","NORAD_CAT_ID":55919,"ELEMENT_SET_NO":999,"REV_AT_EPOCH":13306,"BSTAR":-0.00069955,"MEAN_MOTION_DOT":-8.431e-5,"MEAN_MOTION_DDOT":0},{"OBJECT_NAME":"STARLINK-5862","OBJECT_ID":"2023-037G","EPOCH":"2025-08-18T14:16:10.094592","MEAN_MOTION":14.98331422,"ECCENTRICITY":0.0002868,"INCLINATION":69.9994,"RA_OF_ASC_NODE":76.7298,"ARG_OF_PERICENTER":268.3779,"MEAN_ANOMALY":91.7051,"EPHEMERIS_TYPE":0,"CLASSIFICATION_TYPE":"U","NORAD_CAT_ID":55920,"ELEMENT_SET_NO":999,"REV_AT_EPOCH":13355,"BSTAR":3.7142e-5,"MEAN_MOTION_DOT":3.5e-6,"MEAN_MOTION_DDOT":0},{"OBJECT_NAME":"STARLINK-5861","OBJECT_ID":"2023-037H","EPOCH":"2025-08-18T08:58:02.878752","MEAN_MOTION":14.98321908,"ECCENTRICITY":0.0002916,"INCLINATION":69.9996,"RA_OF_ASC_NODE":97.0411,"ARG_OF_PERICENTER":273.1028,"MEAN_ANOMALY":86.9798,"EPHEMERIS_TYPE":0,"CLASSIFICATION_TYPE":"U","NORAD_CAT_ID":55921,"ELEMENT_SET_NO":999,"REV_AT_EPOCH":13303,"BSTAR":1.6754e-5,"MEAN_MOTION_DOT":1.07e-6,"MEAN_MOTION_DDOT":0},{"OBJECT_NAME":"STARLINK-5863","OBJECT_ID":"2023-037J","EPOCH":"2025-08-18T09:04:02.231904","MEAN_MOTION":14.98331422,"ECCENTRICITY":0.0002903,"INCLINATION":69.9992,"RA_OF_ASC_NODE":97.0551,"ARG_OF_PERICENTER":271.4694,"MEAN_ANOMALY":88.6132,"EPHEMERIS_TYPE":0,"CLASSIFICATION_TYPE":"U","NORAD_CAT_ID":55922,"ELEMENT_SET_NO":999,"REV_AT_EPOCH":13303,"BSTAR":2.5138e-5,"MEAN_MOTION_DOT":2.07e-6,"MEAN_MOTION_DDOT":0},{"OBJECT_NAME":"STARLINK-5854","OBJECT_ID":"2023-037K","EPOCH":"2025-08-18T09:10:03.313920","MEAN_MOTION":14.98330371,"ECCENTRICITY":0.0002589,"INCLINATION":69.9993,"RA_OF_ASC_NODE":97.0693,"ARG_OF_PERICENTER":269.8342,"MEAN_ANOMALY":90.2521,"EPHEMERIS_TYPE":0,"CLASSIFICATION_TYPE":"U","NORAD_CAT_ID":55923,"ELEMENT_SET_NO":999,"REV_AT_EPOCH":13303,"BSTAR":3.1608e-5,"MEAN_MOTION_DOT":2.84e-6,"MEAN_MOTION_DDOT":0}]
