STARLINK-5818           
1 55785U 23028AW  25230.61449476 -.00000210  00000+0 -97904-5 0  9996
2 55785  70.0014 356.6363 0003147 271.0213  89.0585 14.98328907136609
STARLINK-5823           
1 55786U 23028AX  25230.60197462  .00001091  00000+0  99269-4 0  9992
2 55786  70.0010 356.5923 0003198 266.8831  93.1962 14.98324856136605
STARLINK-5811           
1 55787U 23028AY  25230.61032583 -.00000820  00000+0 -60940-4 0  9991
2 55787  70.0017 356.6223 0003118 270.5547  89.5254 14.98321885136607
STARLINK-5804           
1 55788U 23028AZ  25230.60614755  .00001210  00000+0  10916-3 0  9997
2 55788  70.0011 356.6075 0003219 268.8819  91.1972 14.98337111136606
STARLINK-5815           
1 55789U 23028BA  25230.58108124  .00002184  00000+0  19068-3 0  9991
2 55789  70.0012 356.5153 0002464 273.7509  86.3368 14.98345698136600
STARLINK-5813           
1 55790U 23028BB  25230.58543759  .00000248  00000+0  28605-4 0  9997
2 55790  70.0012 356.5340 0003294 270.1799  89.8983 14.98330709136602
STARLINK-5807           
1 55791U 23028BC  25230.59779598 -.00000302  00000+0 -17557-4 0  9998
2 55791  70.0014 356.5780 0003085 269.0547  91.0259 14.98329582136607
STARLINK-5856           
1 55914U 23037A   25230.60730841 -.00000035  00000+0  48235-5 0  9995
2 55914  69.9996  96.6545 0002498 267.8840  92.2033 14.98331524133755
STARLINK-5859           
1 55915U 23037B   25230.05653216  .00000045  00000+0  11566-4 0  9991
2 55915  69.9991  97.9409 0002887 270.3798  89.7030 14.98330304133671
STARLINK-5796           
1 55916U 23037C   25230.33609585 -.00000385  00000+0 -24497-4 0  9999
2 55916  70.0003  97.3124 0002332 269.8264  90.2627 14.98335190133029
STARLINK-5855           
1 55917U 23037D   25230.58335648  .00080363  00000+0  85578-3 0  9991
2 55917  69.9760  29.9580 0003731 119.1034 306.2932 15.63599396  5941
STARLINK-5867           
1 55918U 23037E   25230.33191328  .00000893  00000+0  82625-4 0  9991
2 55918  69.9992  97.2971 0003112 268.4803  91.5999 14.98337648133021
STARLINK-5871           
1 55919U 23037F   25230.59072713 -.00008431  00000+0 -69955-3 0  9994
2 55919  69.9998  96.5942 0009931 289.4832  70.5253 14.98292406133064
STARLINK-5862           
1 55920U 23037G   25230.59456128  .00000350  00000+0  37142-4 0  9996
2 55920  69.9994  76.7298 0002868 268.3779  91.7051 14.98331422133551
STARLINK-5861           
1 55921U 23037H   25230.37364443  .00000107  00000+0  16754-4 0  9997
2 55921  69.9996  97.0411 0002916 273.1028  86.9798 14.98321908133037
STARLINK-5863           
1 55922U 23037J   25230.37780361  .00000207  00000+0  25138-4 0  9996
2 55922  69.9992  97.0551 0002903 271.4694  88.6132 14.98331422133038
STARLINK-5854           
1 55923U 23037K   25230.38198280  .00000284  00000+0  31608-4 0  9995
2 55923  69.9993  97.0693 0002589 269.8342  90.2521 14.98330371133031
